GALAXY 16 (G-16)        
1 29236U 06023A   26162.67488684 -.00000110  00000+0  00000+0 0  9992
2 29236   0.0459 150.6084 0002432 295.7384 317.6323  1.00270854 72916
EUTELSAT 33F            
1 29270U 06032A   26162.70103140  .00000171  00000+0  00000+0 0  9991
2 29270   1.6468  82.3031 0003773 356.0146 107.2260  1.00267651 47253
JCSAT-3A                
1 29272U 06033A   26162.68441781 -.00000328  00000+0  00000+0 0  9992
2 29272   0.0087 316.7634 0001942 129.1685 188.4872  1.00272043 47689
KOREASAT 5 (MUGUNGWHA 5)
1 29349U 06034A   26162.84767097 -.00000342  00000+0  00000+0 0  9993
2 29349   1.7707  83.0433 0001434  51.2169 184.1452  1.00269655 41260
DIRECTV 9S              
1 29494U 06043A   26162.67445352 -.00000098  00000+0  00000+0 0  9990
2 29494   2.4058  80.9664 0004900   9.6032 311.0637  1.00270989 51323
OPTUS D1                
1 29495U 06043B   26162.65322007 -.00000168  00000+0  00000+0 0  9998
2 29495   3.0199  79.7209 0003426 356.3212 211.1084  1.00270533 72067
BADR-4                  
1 29526U 06051A   26155.74309133  .00000167  00000+0  00000+0 0  9997
2 29526   1.9707  81.2738 0007892 161.5231 306.4291  1.00450212 51145
WILDBLUE-1              
1 29643U 06054A   26162.43215295 -.00000033  00000+0  00000+0 0  9992
2 29643   2.7874  80.5521 0001347   7.3508 216.2536  1.00272139 53731
SKYNET 5A               
1 30794U 07007B   26162.73611816 -.00000258  00000+0  00000+0 0  9991
2 30794   5.2875  73.8071 0004022  12.8238 173.6677  1.00271133 70642
ANIK F3                 
1 31102U 07009A   26162.67098683  .00000015  00000+0  00000+0 0  9991
2 31102   1.1824  83.9126 0002484   0.8151 298.1031  1.00271223 46504
ASTRA 1L                
1 31306U 07016A   26162.68962023 -.00000168  00000+0  00000+0 0  9994
2 31306   1.3068  81.6151 0005173   7.5198  34.6783  1.00272222 44930
GALAXY 17 (G-17)        
1 31307U 07016B   26162.60635396 -.00000191  00000+0  00000+0 0  9993
2 31307   2.9574  79.9686 0004775  19.4204 293.8533  1.00270447 69745
INTELSAT 11 (IS-11)     
1 32253U 07044B   26162.65287340 -.00000268  00000+0  00000+0 0  9997
2 32253   3.5503  78.7348 0002072  88.5033 117.9596  0.99053035 68396
WGS F1 (USA 195)        
1 32258U 07046A   26162.68606690 -.00000251  00000+0  00000+0 0  9992
2 32258   0.0467  96.4433 0000203 322.9387  45.1532  1.00268567 52289
SKYNET 5B               
1 32294U 07056B   26162.84199631  .00000153  00000+0  00000+0 0  9993
2 32294   5.2394  73.5697 0004029   0.3794 154.4223  1.00272235 68142
ASTRA 4A                
1 32299U 07057A   26162.69542692  .00000049  00000+0  00000+0 0  9995
2 32299   0.0141 329.6018 0002189 113.5551  72.0359  1.00270355 51592
HORIZONS-2              
1 32388U 07063B   26162.53727065 -.00000238  00000+0  00000+0 0  9994
2 32388   2.5868  80.6926 0003816 358.2929 300.5423  1.00270448 67750
THURAYA-3               
1 32404U 08001A   26162.71054310 -.00000085  00000+0  00000+0 0  9992
2 32404   5.9797  35.7874 0001451 158.4591  42.8196  1.00007860 67432
THOR 5                  
1 32487U 08006A   26162.69430027  .00000007  00000+0  00000+0 0  9991
2 32487   0.0320 258.7662 0002361 187.8832  62.5861  1.00270330 67261
AMC-14                  
1 32708U 08011A   26162.63599779 -.00000034  00000+0  00000+0 0  9998
2 32708  23.9988  20.5866 0046270   6.6203 165.6929  1.00354258 68116
DIRECTV 11              
1 32729U 08013A   26162.60358060 -.00000109  00000+0  00000+0 0  9999
2 32729   0.0126 263.3490 0000365  89.6842  25.0254  1.00270690 45532
ICO G1                  
1 32763U 08016A   26162.34280656 -.00000159  00000+0  00000+0 0  9991
2 32763   5.5329  36.1650 0002300  29.5225 224.5466  1.00272317 66484
VINASAT-1               
1 32767U 08018A   26162.68714387 -.00000312  00000+0  00000+0 0  9998
2 32767   0.0208 304.3949 0001073 148.0944 186.8588  1.00269797 66535
STAR ONE C2             
1 32768U 08018B   26162.53900398 -.00000260  00000+0  00000+0 0  9994
2 32768   1.2259  82.5100 0002544   4.7254 301.7056  1.00271182 66590
AMOS-3                  
1 32794U 08022A   26162.70137808  .00000168  00000+0  00000+0 0  9991
2 32794   0.4405  86.3095 0001976  69.6164  31.4949  1.00472781 82286
GALAXY 18 (G-18)        
1 32951U 08024A   26162.67012015  .00000042  00000+0  00000+0 0  9997
2 32951   0.0007   0.4303 0002606  78.7540 299.0673  1.00270179 45792
ZHONGXING-9             
1 33051U 08028A   26162.89400074 -.00000233  00000+0  00000+0 0  9996
2 33051   0.7539  85.4456 0004266 335.0491 253.9793  1.00271705 65982
SKYNET 5C               
1 33055U 08030A   26162.69092024 -.00000126  00000+0  00000+0 0  9994
2 33055   3.7741  77.1033 0003983  14.0462  39.8122  1.00269723 65906
TURKSAT 3A              
1 33056U 08030B   26162.63149110  .00000163  00000+0  00000+0 0  9998
2 33056   0.0431  77.5670 0005031 352.3633  99.3874  1.00273935 52303
INTELSAT 25 (IS-25)     
1 33153U 08034A   26162.72737116 -.00000269  00000+0  00000+0 0  9997
2 33153   2.6949  80.4340 0003032  55.7917 171.6349  0.99037401 65632
ECHOSTAR 11             
1 33207U 08035A   26162.60141394 -.00000042  00000+0  00000+0 0  9991
2 33207   0.9899  84.2380 0002172 345.4325 296.9888  1.00271440 51156
SUPERBIRD-C2            
1 33274U 08038A   26162.72137648 -.00000291  00000+0  00000+0 0  9994
2 33274   2.3462  81.3286 0005948  25.3952 189.0216  1.00269683105679
